TEVEL2-3                
1 63218U 25052J   26068.64540225  .00020365  00000+0  69446-3 0  9991
2 63218  97.3994 324.7775 0004761 105.7353 254.4413 15.30377031 54855
STARLINK-35444          
1 66511U 25263AC  26068.12224716  .00038459  00000+0  13985-2 0  9990
2 66511  43.0040 353.7617 0001930 243.9267 116.1386 15.27610410 18811
